


*******************************************************************************
Ephemeris / MAIL_REQUEST Sun Aug  9 09:38:41 2015 Pasadena, USA  / Horizons
*******************************************************************************
Target body name: Venus (299)                     {source: DE-0431LE-0431}
Center body name: Solar System Barycenter (0)     {source: DE-0431LE-0431}
Center-site name: BODY CENTER
*******************************************************************************
Start time      : A.D. 2015-Jan-01 00:00:00.0000 CT
Stop  time      : A.D. 2018-Jan-03 00:00:00.0000 CT
Step-size       : 2880 minutes
*******************************************************************************
Center geodetic : 0.00000000,0.00000000,0.0000000 {E-lon(deg),Lat(deg),Alt(km)}
Center cylindric: 0.00000000,0.00000000,0.0000000 {E-lon(deg),Dxy(km),Dz(km)}
Center radii    : (undefined)
Output units    : KM-S
Output format   : 02
Reference frame : ICRF/J2000.0
Output type     : GEOMETRIC cartesian states
Coordinate systm: Ecliptic and Mean Equinox of Reference Epoch
*******************************************************************************
JDCT
   X     Y     Z
   VX    VY    VZ
*******************************************************************************
$$SOE
2457281.500000000 = A.D. 2015-Sep-16 00:00:00.0000 (CT)
   1.065932907409928E+08  2.257810985766448E+07 -5.835421198952005E+06
  -7.384807458878077E+00  3.411366259200824E+01  8.937734586192398E-01
2457283.500000000 = A.D. 2015-Sep-18 00:00:00.0000 (CT)
   1.051536285086121E+08  2.843510539336663E+07 -5.672056992030813E+06
  -9.273959198442347E+00  3.365806460485943E+01  9.965447211407827E-01
2457285.500000000 = A.D. 2015-Sep-20 00:00:00.0000 (CT)
   1.033897575402453E+08  3.420430078272198E+07 -5.491187390481723E+06
  -1.113625351270876E+01  3.309768216926480E+01  1.096329311735021E+00
2457287.500000000 = A.D. 2015-Sep-22 00:00:00.0000 (CT)
   1.013068197710583E+08  3.986771515868922E+07 -5.293355673378274E+06
  -1.296590317087579E+01  3.243402581665983E+01  1.192813993790134E+00
2457289.500000000 = A.D. 2015-Sep-24 00:00:00.0000 (CT)
   9.891095093116683E+07  4.540765636057334E+07 -5.079158507538168E+06
  -1.475719608178280E+01  3.166892615072401E+01  1.285694254400104E+00
2457291.500000000 = A.D. 2015-Sep-26 00:00:00.0000 (CT)
   9.620926603807579E+07  5.080677602131643E+07 -4.849244355195921E+06
  -1.650451293750455E+01  3.080453112688417E+01  1.374675285148138E+00
2457293.500000000 = A.D. 2015-Sep-28 00:00:00.0000 (CT)
   9.320984183591709E+07  5.604812410077745E+07 -4.604311713079387E+06
  -1.820234489910258E+01  2.984330235633177E+01  1.459472952105861E+00
2457295.500000000 = A.D. 2015-Sep-30 00:00:00.0000 (CT)
   8.992169617880233E+07  6.111520269427910E+07 -4.345107185052767E+06
  -1.984531127054871E+01  2.878801041003391E+01  1.539814751540103E+00
2457297.500000000 = A.D. 2015-Oct-02 00:00:00.0000 (CT)
   8.635476436533087E+07  6.599201894170095E+07 -4.072423391120482E+06
  -2.142817710223940E+01  2.764172910097509E+01  1.615440747521639E+00
2457299.500000000 = A.D. 2015-Oct-04 00:00:00.0000 (CT)
   8.251987244174843E+07  7.066313685886812E+07 -3.787096716263019E+06
  -2.294587066143555E+01  2.640782872553292E+01  1.686104487340250E+00
2457301.500000000 = A.D. 2015-Oct-06 00:00:00.0000 (CT)
   7.842870750269993E+07  7.511372790982388E+07 -3.490004903368752E+06
  -2.439350070145652E+01  2.508996824579199E+01  1.751573889926606E+00
2457303.500000000 = A.D. 2015-Oct-08 00:00:00.0000 (CT)
   7.409378502962714E+07  7.932962013547461E+07 -3.182064495199393E+06
  -2.576637346691959E+01  2.369208639646995E+01  1.811632103909066E+00
2457305.500000000 = A.D. 2015-Oct-10 00:00:00.0000 (CT)
   6.952841331849186E+07  8.329734565181705E+07 -2.864228131005153E+06
  -2.706000936785964E+01  2.221839170680954E+01  1.866078331773567E+00
2457307.500000000 = A.D. 2015-Oct-12 00:00:00.0000 (CT)
   6.474665505921502E+07  8.700418633071841E+07 -2.537481703731503E+06
  -2.827015925819467E+01  2.067335144661022E+01  1.914728618502456E+00
2457309.500000000 = A.D. 2015-Oct-14 00:00:00.0000 (CT)
   5.976328614269071E+07  9.043821747897974E+07 -2.202841384414420E+06
  -2.939282023055380E+01  1.906167951489650E+01  1.957416599075702E+00
2457311.500000000 = A.D. 2015-Oct-16 00:00:00.0000 (CT)
   5.459375178667832E+07  9.358834933420932E+07 -1.861350521418575E+06
  -3.042425083813606E+01  1.738832328458068E+01  1.993994198448390E+00
2457313.500000000 = A.D. 2015-Oct-18 00:00:00.0000 (CT)
   4.925412008718544E+07  9.644436619785635E+07 -1.514076423299126E+06
  -3.136098565685037E+01  1.565844941145266E+01  2.024332277612920E+00
2457315.500000000 = A.D. 2015-Oct-20 00:00:00.0000 (CT)
   4.376103311560301E+07  9.899696302766086E+07 -1.162107034899175E+06
  -3.219984911782588E+01  1.387742862505140E+01  2.048321223000650E+00
2457317.500000000 = A.D. 2015-Oct-22 00:00:00.0000 (CT)
   3.813165569427685E+07  1.012377793162855E+08 -8.065475167661011E+05
  -3.293796853094388E+01  1.205081953374389E+01  2.065871475277355E+00
2457319.500000000 = A.D. 2015-Oct-24 00:00:00.0000 (CT)
   3.238362199689102E+07  1.031594300892529E+08 -4.485167386399657E+05
  -3.357278622437741E+01  1.018435148618121E+01  2.076913994569836E+00
2457321.500000000 = A.D. 2015-Oct-26 00:00:00.0000 (CT)
   2.653498013337841E+07  1.047555338632958E+08 -8.914369835053384E+04
  -3.410207071910098E+01  8.283906538032578E+00  2.081400657883319E+00
2457323.500000000 = A.D. 2015-Oct-28 00:00:00.0000 (CT)
   2.060413489277048E+07  1.060207374152031E+08  2.704361218366027E+05
  -3.452392686190667E+01  6.355500579536612E+00  2.079304585052500E+00
2457325.500000000 = A.D. 2015-Oct-30 00:00:00.0000 (CT)
   1.460978883040386E+07  1.069507372214471E+08  6.290844487699419E+05
  -3.483680484296481E+01  4.405263686309681E+00  2.070620389739359E+00
2457327.500000000 = A.D. 2015-Nov-01 00:00:00.0000 (CT)
   8.570881898304593E+06  1.075422974402721E+08  9.856639486324415E+05
  -3.503950802842314E+01  2.439419762907391E+00  2.055364352379568E+00
2457329.500000000 = A.D. 2015-Nov-03 00:00:00.0000 (CT)
   2.506529829191152E+06  1.077932643205444E+08  1.339041980105117E+06
  -3.513119954311517E+01  4.642655556616594E-01  2.033574512362915E+00
2457331.500000000 = A.D. 2015-Nov-05 00:00:00.0000 (CT)
  -3.564038504720436E+06  1.077025769354670E+08  1.688094356313601E+06
  -3.511140754423516E+01 -1.513850882044668E+00  2.005310677164298E+00
2457333.500000000 = A.D. 2015-Nov-07 00:00:00.0000 (CT)
  -9.621544527219748E+06  1.072702741541958E+08  2.031709101040766E+06
  -3.498002913271932E+01 -3.488552182474987E+00  1.970654346580052E+00
2457335.500000000 = A.D. 2015-Nov-09 00:00:00.0000 (CT)
  -1.564672394843001E+07  1.064974977803447E+08  2.368790184411705E+06
  -3.473733285636910E+01 -5.453454019164832E+00  1.929708550716927E+00
2457337.500000000 = A.D. 2015-Nov-11 00:00:00.0000 (CT)
  -2.162039106315303E+07  1.053864918032996E+08  2.698261223065898E+06
  -3.438395976599600E+01 -7.402187724894637E+00  1.882597600879451E+00
2457339.500000000 = A.D. 2015-Nov-13 00:00:00.0000 (CT)
  -2.752350310445710E+07  1.039405977259749E+08  3.019069129730798E+06
  -3.392092299428939E+01 -9.328423067415070E+00  1.829466753041415E+00
2457341.500000000 = A.D. 2015-Nov-15 00:00:00.0000 (CT)
  -3.333722439522473E+07  1.021642459510965E+08  3.330187697103210E+06
  -3.334960583566652E+01 -1.122589107431228E+01  1.770481784135936E+00
2457343.500000000 = A.D. 2015-Nov-17 00:00:00.0000 (CT)
  -3.904299003741993E+07  1.000629432270834E+08  3.630621101035036E+06
  -3.267175831466074E+01 -1.308840679592035E+01  1.705828481969553E+00
2457345.500000000 = A.D. 2015-Nov-19 00:00:00.0000 (CT)
  -4.462256887749435E+07  9.764325617399962E+07  3.919407308208480E+06
  -3.188949223980352E+01 -1.490989189295852E+01  1.635712050138840E+00
2457347.500000000 = A.D. 2015-Nov-21 00:00:00.0000 (CT)
  -5.005812548667216E+07  9.491279092970547E+07  4.195621373773538E+06
  -3.100527474987082E+01 -1.668439693500068E+01  1.560356429905553E+00
2457349.500000000 = A.D. 2015-Nov-23 00:00:00.0000 (CT)
  -5.533228089690170E+07  9.188016897605921E+07  4.458378614809543E+06
  -3.002192036920673E+01 -1.840612329540961E+01  1.480003541566625E+00
2457351.500000000 = A.D. 2015-Nov-25 00:00:00.0000 (CT)
  -6.042817183699661E+07  8.855499922465855E+07  4.706837645957295E+06
  -2.894258159881888E+01 -2.006944453002275E+01  1.394912448399850E+00
2457353.500000000 = A.D. 2015-Nov-27 00:00:00.0000 (CT)
  -6.532950821898688E+07  8.494784646099104E+07  4.940203264150765E+06
  -2.777073807995755E+01 -2.166892712830657E+01  1.305358446833261E+00
2457355.500000000 = A.D. 2015-Nov-29 00:00:00.0000 (CT)
  -7.002062863185549E+07  8.107019626477921E+07  5.157729170050189E+06
  -2.651018437641752E+01 -2.319935052925147E+01  1.211632086981240E+00
2457357.500000000 = A.D. 2015-Dec-01 00:00:00.0000 (CT)
  -7.448655360867149E+07  7.693441654263601E+07  5.358720514539156E+06
  -2.516501643140859E+01 -2.465572629793264E+01  1.114038128197343E+00
2457359.500000000 = A.D. 2015-Dec-03 00:00:00.0000 (CT)
  -7.871303644354501E+07  7.255371582667951E+07  5.542536259489629E+06
  -2.373961676364469E+01 -2.603331636396838E+01  1.012894434728793E+00
2457361.500000000 = A.D. 2015-Dec-05 00:00:00.0000 (CT)
  -8.268661134675373E+07  6.794209850935003E+07  5.708591342914607E+06
  -2.223863847596025E+01 -2.732765022865994E+01  9.085308169804058E-01
2457363.500000000 = A.D. 2015-Dec-07 00:00:00.0000 (CT)
  -8.639463873973408E+07  6.311431720019707E+07  5.856358639610857E+06
  -2.066698815736950E+01 -2.853454105466834E+01  8.012878242392443E-01
2457365.500000000 = A.D. 2015-Dec-09 00:00:00.0000 (CT)
  -8.982534750626248E+07  5.808582240466799E+07  5.985370709434211E+06
  -1.902980776697627E+01 -2.965010055913762E+01  6.915154950448397E-01
